STARLINK-32669          
1 62213U 24229X   26187.40359651  .00052812  00000+0  19118-2 0  9999
2 62213  42.9986 320.5755 0000850 228.4172 131.6607 15.27634216 88715
STARLINK-32666          
1 62214U 24229Y   26187.41002356 -.00052225  00000+0 -19051-2 0  9994
2 62214  43.0015 320.6239 0004173 147.3510 212.7600 15.27511707 88719
STARLINK-32662          
1 62215U 24229Z   26186.80738598  .00020151  00000+0  74002-3 0  9990
2 62215  43.0019 323.8453 0002729 280.5854  79.4690 15.27568073 88628
STARLINK-11394 [DTC]    
1 62218U 24231A   26187.51130669  .00094496  00000+0  77293-3 0  9998
2 62218  53.1573 235.5293 0001519  58.6383 301.4784 15.69804680 92075
STARLINK-11490 [DTC]    
1 62219U 24231B   26187.38889043  .00185903  00000+0  15013-2 0  9996
2 62219  53.1570 236.1902 0001390  15.9010 344.2051 15.69771555 92051
STARLINK-11466 [DTC]    
1 62220U 24231C   26187.33503355  .00143530  00000+0  11651-2 0  9996
2 62220  53.1573 236.5663 0000710  95.8506 264.2593 15.69795058 92041
STARLINK-11468 [DTC]    
1 62221U 24231D   26187.34484472  .00156795  00000+0  12709-2 0  9998
2 62221  53.1571 236.6313 0001161  87.3369 272.7782 15.69782458 92041
STARLINK-11488 [DTC]    
1 62222U 24231E   26187.33012435  .00143583  00000+0  11649-2 0  9997
2 62222  53.1571 236.5345 0001100 113.6828 246.4305 15.69807383 92046
STARLINK-11483 [DTC]    
1 62223U 24231F   26187.35945600  .00194966  00000+0  15712-2 0  9995
2 62223  53.1568 235.9933 0002266  14.0326 346.0754 15.69792356 92059
STARLINK-11492 [DTC]    
1 62224U 24231G   26187.33993623  .00186697  00000+0  15060-2 0  9990
2 62224  53.1573 236.6103 0001181  68.7085 291.4059 15.69797412 92044
STARLINK-11471 [DTC]    
1 62225U 24231H   26187.36436198  .00212764  00000+0  17113-2 0  9999
2 62225  53.1566 236.0369 0001238  30.8248 329.2842 15.69780834 92050
STARLINK-11475 [DTC]    
1 62226U 24231J   26187.36926203  .00177256  00000+0  14308-2 0  9990
2 62226  53.1570 236.0558 0000760  88.5376 271.5729 15.69813078 92057
STARLINK-11469 [DTC]    
1 62227U 24231K   26187.37907567  .00190756  00000+0  15390-2 0  9996
2 62227  53.1567 236.1197 0001475  22.2174 337.8907 15.69780006 92057
STARLINK-11476 [DTC]    
1 62228U 24231L   26187.58336806  .00039921  00000+0  33230-3 0  9992
2 62228  53.1572 234.8319 0001255  56.9962 156.8883 15.69745030  5245
STARLINK-11485 [DTC]    
1 62229U 24231M   26187.37417855  .00193227  00000+0  15588-2 0  9999
2 62229  53.1570 236.0889 0001760  59.3579 300.7612 15.69772996 92058
STARLINK-11481 [DTC]    
1 62230U 24231N   26187.54074653  .00101990  00000+0  83337-3 0  9999
2 62230  53.1570 235.7176 0002415  30.7240 329.3919 15.69795235 92071
STARLINK-32650          
1 62231U 24231P   26186.99544475  .00023195  00000+0  75691-3 0  9996
2 62231  53.1590  29.9646 0000810 107.3965 252.7125 15.31698530 89883
STARLINK-32636          
1 62232U 24231Q   26186.98572154  .00027497  00000+0  93871-3 0  9990
2 62232  53.1577  29.9034 0001187  57.5256 302.5859 15.30143803 89882
STARLINK-32643          
1 62233U 24231R   26186.81054358  .00016092  00000+0  52960-3 0  9997
2 62233  53.1591  17.4513 0000796 126.2589 233.8486 15.31675418 90035
STARLINK-32652          
1 62234U 24231S   26186.93487533  .00023119  00000+0  75565-3 0  9990
2 62234  53.1599  30.2928 0001010  60.9768 299.1335 15.31649017 89863
STARLINK-32631          
1 62235U 24231T   26186.98763482  .00027980  00000+0  91017-3 0  9996
2 62235  53.1604  16.4268 0001050  76.2368 283.8750 15.31695567 90060
STARLINK-32641          
1 62236U 24231U   26186.81560061  .00015670  00000+0  54124-3 0  9998
2 62236  53.1602  18.1863 0001102  85.5989 274.5137 15.30129058 90027
STARLINK-32632          
1 62262U 24231V   26186.86029392  .00023906  00000+0  77989-3 0  9994
2 62262  53.1585  30.5352 0001125 105.9407 254.1718 15.31690411 89860
STARLINK-11496 [DTC]    
1 62267U 24237A   26187.05084908  .00340524  00000+0  25412-2 0  9992
2 62267  43.0004  63.5086 0001764 278.7763  81.2905 15.70922721 91665
STARLINK-11501 [DTC]    
1 62268U 24237B   26187.01899726  .00177017  00000+0  13535-2 0  9999
2 62268  43.0004  63.2514 0001678 278.0266  82.0411 15.70846633 91617
STARLINK-11491 [DTC]    
1 62269U 24237C   26187.01367086  .00189318  00000+0  14412-2 0  9991
2 62269  43.0009  63.2091 0002907 270.6207  89.4328 15.70908740 91663
STARLINK-11479 [DTC]    
1 62270U 24237D   26186.71169134  .00375907  00000+0  27968-2 0  9994
2 62270  42.9995  65.2517 0001594 256.1681 103.9010 15.70889146 91611
STARLINK-11489 [DTC]    
1 62271U 24237E   26187.06677941  .00181376  00000+0  13844-2 0  9997
2 62271  43.0006  63.6363 0001880 277.8730  82.1924 15.70873008 91668
STARLINK-11494 [DTC]    
1 62272U 24237F   26186.79121006  .00191989  00000+0  14682-2 0  9995
2 62272  42.9995  64.9965 0001243 277.6010  82.4717 15.70794233 91573
STARLINK-11333 [DTC]    
1 62273U 24237G   26187.05615738  .00194466  00000+0  14812-2 0  9994
2 62273  42.9996  63.5502 0001966 284.6065  75.4584 15.70882303 91667
STARLINK-11504 [DTC]    
1 62274U 24237H   26187.04023096  .00268778  00000+0  20272-2 0  9999
2 62274  43.0012  63.4187 0002536 257.8114 102.2469 15.70885864 91619
STARLINK-11495 [DTC]    
1 62275U 24237J   26187.07208853  .00207152  00000+0  15753-2 0  9996
2 62275  43.0008  63.6773 0001863 287.0264  73.0399 15.70879845 91610
STARLINK-11498 [DTC]    
1 62276U 24237K   26187.02429964  .00228220  00000+0  17282-2 0  9998
2 62276  43.0000  63.2911 0002333 270.7314  89.3286 15.70914019 91664
STARLINK-11484 [DTC]    
1 62277U 24237L   26187.03491908  .00215901  00000+0  16396-2 0  9994
2 62277  42.9996  63.3759 0001495 267.5716  92.4980 15.70885794 91669
STARLINK-11487 [DTC]    
1 62278U 24237M   26186.99788764  .00227073  00000+0  17239-2 0  9998
2 62278  43.0004  63.9729 0002107 271.9366  88.1261 15.70857426 91650
STARLINK-11499 [DTC]    
1 62279U 24237N   26187.07299773  .00253977  00000+0  19193-2 0  9999
2 62279  42.9992  63.6810 0001189 273.7432  86.3300 15.70884256 91594
STARLINK-33548          
1 62280U 24237P   26186.88351742  .00019639  00000+0  72241-3 0  9993
2 62280  42.9995 258.0091 0001373 273.5627  86.5068 15.27528098 89398
STARLINK-33544          
1 62281U 24237Q   26187.26426010  .00023608  00000+0  86519-3 0  9992
2 62281  42.9982 266.9535 0001320 255.3341 104.7364 15.27560477 89321
STARLINK-33560          
1 62282U 24237R   26187.24625828  .00033806  00000+0  12325-2 0  9993
2 62282  42.9978 266.8101 0001744 291.2246  68.8419 15.27576523 89238
STARLINK-33547          
1 62283U 24237S   26186.55271593 -.00007754  00000+0 -27278-3 0  9992
2 62283  42.9987 259.8231 0001394 267.9679  92.1013 15.27553572 89347
STARLINK-33563          
1 62284U 24237T   26186.92575396  .00030983  00000+0  11324-2 0  9994
2 62284  43.0026 268.7059 0001591 270.6320  89.4350 15.27529253 89278
STARLINK-33550          
1 62285U 24237U   26187.24239433  .00044157  00000+0  16031-2 0  9998
2 62285  42.9990 266.7810 0001330 283.0828  76.9875 15.27610732 89324
STARLINK-33564          
1 62286U 24237V   26186.92961103  .00031184  00000+0  11397-2 0  9995
2 62286  42.9994 268.7385 0000752 301.9342  58.1437 15.27528551 89273
STARLINK-33546          
1 62287U 24237W   26187.24883669  .00024943  00000+0  91405-3 0  9996
2 62287  42.9992 266.8291 0001746 259.5856 100.4799 15.27536858 89236
STARLINK-33565          
1 62288U 24237X   26187.24243560  .00048017  00000+0  17428-2 0  9997
2 62288  43.0053 255.5396 0001852 263.5020  96.5621 15.27586084 89453
STARLINK-33549          
1 62289U 24237Y   26187.26038415  .00023403  00000+0  85764-3 0  9992
2 62289  43.0008 266.9218 0000699 216.8328 143.2475 15.27566350 89320
STARLINK-32648          
1 62301U 24239A   26186.91502367  .00034393  00000+0  10258-2 0  9997
2 62301  53.1603 351.3674 0000810 110.9332 249.1757 15.34355818 87675
STARLINK-32594          
1 62302U 24239B   26187.45933390  .00026460  00000+0  79211-3 0  9993
2 62302  53.1612 358.8702 0000795  86.0844 274.0250 15.34374975 87617
STARLINK-32621          
1 62303U 24239C   26187.44453991  .00024281  00000+0  72801-3 0  9994
2 62303  53.1619 348.9807 0000624  94.0165 266.0909 15.34374526 87756
STARLINK-32597          
1 62304U 24239D   26186.86881878  .00035317  00000+0  10523-2 0  9993
2 62304  53.1611 351.7887 0000815 130.7161 229.3912 15.34375816 87664
STARLINK-32649          
1 62305U 24239E   26186.78749966  .00039728  00000+0  11826-2 0  9993
2 62305  53.1599   4.0681 0000828 114.9162 245.1927 15.34350279 87487
STARLINK-32633          
1 62306U 24239F   26187.47884915  .00028495  00000+0  85173-3 0  9991
2 62306  53.1614   1.2689 0000742  90.1928 269.9160 15.34383056 87586
STARLINK-32646          
1 62307U 24239G   26187.47389420  .00021935  00000+0  75058-3 0  9996
2 62307  53.1593 349.1624 0000863 116.7383 243.3706 15.30197405 87758
STARLINK-32706          
1 62308U 24239H   26187.48936128  .00024015  00000+0  71988-3 0  9991
2 62308  53.1599   1.3363 0001102 108.1178 251.9945 15.34389139 87588
STARLINK-32678          
1 62309U 24239J   26187.46621158  .00075811  00000+0  20768-2 0  9993
2 62309  53.1581 348.4023 0003180 283.6721  76.3929 15.36658274 87761
STARLINK-32696          
1 62310U 24239K   26187.49558547  .00021280  00000+0  63940-3 0  9990
2 62310  53.1595   0.6670 0000710 113.8192 246.2885 15.34388579 87591
STARLINK-32700          
1 62311U 24239L   26187.44874595  .00026180  00000+0  78386-3 0  9994
2 62311  53.1619 349.0090 0000165  47.5314 312.5702 15.34375776 87745
STARLINK-32698          
1 62312U 24239M   26187.51032008  .00020335  00000+0  61177-3 0  9994
2 62312  53.1594   0.7553 0000477 132.0140 228.0903 15.34377218 87596
STARLINK-32634          
1 62313U 24239N   26187.45085148  .00026787  00000+0  80170-3 0  9992
2 62313  53.1616 349.0197 0000341 101.1609 258.9432 15.34376654 87752
